{"CCSDS_OMM_VERS":{"0":"3.0","1":"3.0","2":"3.0","3":"3.0","4":"3.0","5":"3.0"},"COMMENT":{"0":"GENERATED VIA SPACE-TRACK.ORG API","1":"GENERATED VIA SPACE-TRACK.ORG API","2":"GENERATED VIA SPACE-TRACK.ORG API","3":"GENERATED VIA SPACE-TRACK.ORG API","4":"GENERATED VIA SPACE-TRACK.ORG API","5":"GENERATED VIA SPACE-TRACK.ORG API"},"CREATION_DATE":{"0":"2024-01-15T18:40:37","1":"2024-01-15T03:09:41","2":"2024-01-16T19:13:23","3":"2024-01-15T18:40:37","4":"2024-01-15T14:26:17","5":"2024-01-16T19:13:23"},"ORIGINATOR":{"0":"18 SPCS","1":"18 SPCS","2":"18 SPCS","3":"18 SPCS","4":"18 SPCS","5":"18 SPCS"},"OBJECT_NAME":{"0":"NAVSTAR 60 (USA 196)","1":"NAVSTAR 60 (USA 196)","2":"NAVSTAR 60 (USA 196)","3":"NAVSTAR 74 (USA 262)","4":"NAVSTAR 74 (USA 262)","5":"NAVSTAR 74 (USA 262)"},"OBJECT_ID":{"0":"2007-047A","1":"2007-047A","2":"2007-047A","3":"2015-033A","4":"2015-033A","5":"2015-033A"},"CENTER_NAME":{"0":"EARTH","1":"EARTH","2":"EARTH","3":"EARTH","4":"EARTH","5":"EARTH"},"REF_FRAME":{"0":"TEME","1":"TEME","2":"TEME","3":"TEME","4":"TEME","5":"TEME"},"TIME_SYSTEM":{"0":"UTC","1":"UTC","2":"UTC","3":"UTC","4":"UTC","5":"UTC"},"MEAN_ELEMENT_THEORY":{"0":"SGP4","1":"SGP4","2":"SGP4","3":"SGP4","4":"SGP4","5":"SGP4"},"EPOCH":{"0":"2024-01-14T17:55:58.103328","1":"2024-01-14T17:55:58.142208","2":"2024-01-16T05:49:43.542912","3":"2024-01-15T05:52:27.365088","4":"2024-01-15T05:52:27.365088","5":"2024-01-16T05:48:17.106624"},"MEAN_MOTION":{"0":"2.00572274","1":"2.00572303","2":"2.00572233","3":"2.00575075","4":"2.00575075","5":"2.00574920"},"ECCENTRICITY":{"0":"0.01522710","1":"0.01522960","2":"0.01522870","3":"0.00912750","4":"0.00912750","5":"0.00913330"},"INCLINATION":{"0":"53.5275","1":"53.5276","2":"53.5283","3":"54.7314","4":"54.7314","5":"54.7305"},"RA_OF_ASC_NODE":{"0":"116.6515","1":"116.6515","2":"116.5894","3":"303.3295","4":"303.3295","5":"303.2888"},"ARG_OF_PERICENTER":{"0":"73.4709","1":"73.4813","2":"73.4949","3":"15.8651","4":"15.8651","5":"15.9032"},"MEAN_ANOMALY":{"0":"288.2034","1":"288.1933","2":"288.1818","3":"344.4510","4":"344.4510","5":"344.4121"},"EPHEMERIS_TYPE":{"0":"0","1":"0","2":"0","3":"0","4":"0","5":"0"},"CLASSIFICATION_TYPE":{"0":"U","1":"U","2":"U","3":"U","4":"U","5":"U"},"NORAD_CAT_ID":{"0":"32260","1":"32260","2":"32260","3":"40730","4":"40730","5":"40730"},"ELEMENT_SET_NO":{"0":"999","1":"999","2":"999","3":"999","4":"999","5":"999"},"REV_AT_EPOCH":{"0":"11907","1":"11907","2":"11910","3":"6226","4":"6228","5":"6228"},"BSTAR":{"0":"0.00000000000000","1":"0.00000000000000","2":"0.00000000000000","3":"0.00000000000000","4":"0.00000000000000","5":"0.00000000000000"},"MEAN_MOTION_DOT":{"0":"0.00000011","1":"0.00000011","2":"0.00000002","3":"-0.00000051","4":"-0.00000051","5":"-0.00000060"},"MEAN_MOTION_DDOT":{"0":"0.0000000000000","1":"0.0000000000000","2":"0.0000000000000","3":"0.0000000000000","4":"0.0000000000000","5":"0.0000000000000"},"SEMIMAJOR_AXIS":{"0":"26559.582","1":"26559.580","2":"26559.586","3":"26559.335","4":"26559.335","5":"26559.349"},"PERIOD":{"0":"717.946","1":"717.946","2":"717.946","3":"717.936","4":"717.936","5":"717.936"},"APOAPSIS":{"0":"20585.873","1":"20585.937","2":"20585.919","3":"20423.620","4":"20423.620","5":"20423.788"},"PERIAPSIS":{"0":"19777.022","1":"19776.953","2":"19776.983","3":"19938.780","4":"19938.780","5":"19938.639"},"OBJECT_TYPE":{"0":"PAYLOAD","1":"PAYLOAD","2":"PAYLOAD","3":"PAYLOAD","4":"PAYLOAD","5":"PAYLOAD"},"RCS_SIZE":{"0":"LARGE","1":"LARGE","2":"LARGE","3":"LARGE","4":"LARGE","5":"LARGE"},"COUNTRY_CODE":{"0":"US","1":"US","2":"US","3":"US","4":"US","5":"US"},"LAUNCH_DATE":{"0":"2007-10-17","1":"2007-10-17","2":"2007-10-17","3":"2015-07-15","4":"2015-07-15","5":"2015-07-15"},"SITE":{"0":"AFETR","1":"AFETR","2":"AFETR","3":"AFETR","4":"AFETR","5":"AFETR"},"DECAY_DATE":{"0":null,"1":null,"2":null,"3":null,"4":null,"5":null},"FILE":{"0":"4162722","1":"4162100","2":"4163580","3":"4162722","4":"4162436","5":"4163580"},"GP_ID":{"0":"247029752","1":"246987125","2":"247107267","3":"247034920","4":"247013370","5":"247111066"},"TLE_LINE0":{"0":"0 NAVSTAR 60 (USA 196)","1":"0 NAVSTAR 60 (USA 196)","2":"0 NAVSTAR 60 (USA 196)","3":"0 NAVSTAR 74 (USA 262)","4":"0 NAVSTAR 74 (USA 262)","5":"0 NAVSTAR 74 (USA 262)"},"TLE_LINE1":{"0":"1 32260U 07047A   24014.74720027  .00000011  00000-0  00000-0 0  9993","1":"1 32260U 07047A   24014.74720072  .00000011  00000-0  00000-0 0  9993","2":"1 32260U 07047A   24016.24286508  .00000002  00000-0  00000-0 0  9991","3":"1 40730U 15033A   24015.24476117 -.00000051  00000-0  00000-0 0  9997","4":"1 40730U 15033A   24015.24476117 -.00000051  00000-0  00000+0 0  9996","5":"1 40730U 15033A   24016.24186466 -.00000060  00000-0  00000-0 0  9993"},"TLE_LINE2":{"0":"2 32260  53.5275 116.6515 0152271  73.4709 288.2034  2.00572274119079","1":"2 32260  53.5276 116.6515 0152296  73.4813 288.1933  2.00572303119073","2":"2 32260  53.5283 116.5894 0152287  73.4949 288.1818  2.00572233119108","3":"2 40730  54.7314 303.3295 0091275  15.8651 344.4510  2.00575075 62263","4":"2 40730  54.7314 303.3295 0091275  15.8651 344.4510  2.00575075 62285","5":"2 40730  54.7305 303.2888 0091333  15.9032 344.4121  2.00574920 62287"},"Fetch_Timestamp":{"0":"2026-01-20T13:27:32.631","1":"2026-01-20T13:27:32.631","2":"2026-01-20T13:27:32.631","3":"2026-01-20T13:27:32.631","4":"2026-01-20T13:27:32.631","5":"2026-01-20T13:27:32.631"}}